[{"OBJECT_NAME":"STARLINK-34939","OBJECT_ID":"2025-175K","EPOCH":"2026-03-09T15:39:15.862752","MEAN_MOTION":15.05646606,"ECCENTRICITY":0.0003306,"INCLINATION":97.5994,"RA_OF_ASC_NODE":302.6029,"ARG_OF_PERICENTER":84.3032,"MEAN_ANOMALY":275.8572,"EPHEMERIS_TYPE":0,"CLASSIFICATION_TYPE":"U","NORAD_CAT_ID":65183,"ELEMENT_SET_NO":999,"REV_AT_EPOCH":3260,"BSTAR":3.9285e-5,"MEAN_MOTION_DOT":5.06e-6,"MEAN_MOTION_DDOT":0},{"OBJECT_NAME":"BREEZE-M DEB","OBJECT_ID":"2012-044R","EPOCH":"2026-03-09T11:12:03.419136","MEAN_MOTION":11.73981686,"ECCENTRICITY":0.18811986,"INCLINATION":49.9786,"RA_OF_ASC_NODE":125.1894,"ARG_OF_PERICENTER":162.4895,"MEAN_ANOMALY":205.0987,"EPHEMERIS_TYPE":0,"CLASSIFICATION_TYPE":"U","NORAD_CAT_ID":38884,"ELEMENT_SET_NO":999,"REV_AT_EPOCH":53107,"BSTAR":0.00073376568,"MEAN_MOTION_DOT":0.00034118,"MEAN_MOTION_DDOT":4.482423e-6}]
